{
  "type": "FeatureCollection",
  "features": [
    {
      "type": "Feature",
      "properties": {
        "norad_id": 29869,
        "name": "FENGYUN 1C DEB",
        "group": "fengyun-1c-debris",
        "lat": 38.22965288464177,
        "lon": 100.57839216897779,
        "alt_km": 797.0267003779309,
        "timestamp": "2025-12-09T07:41:33.480045+00:00",
        "meta_object_name": "FENGYUN 1C DEB",
        "meta_object_id": "1999-025FP",
        "meta_epoch": "2025-12-08T19:38:12.098976",
        "meta_mean_motion": 14.36869078,
        "meta_eccentricity": 0.00878462,
        "meta_inclination": 98.8726,
        "meta_ra_of_asc_node": 272.9924,
        "meta_arg_of_pericenter": 22.5451,
        "meta_mean_anomaly": 40.7727,
        "meta_ephemeris_type": 0,
        "meta_classification_type": "U",
        "meta_norad_cat_id": 29869,
        "meta_element_set_no": 999,
        "meta_rev_at_epoch": 98764,
        "meta_bstar": 0.0008453524,
        "meta_mean_motion_dot": 2.565e-05,
        "meta_mean_motion_ddot": 0,
        "tle_line1": "1 29869U 99025FP  25342.81819559  .00002565  00000+0  84535-3 0  9996",
        "tle_line2": "2 29869  98.8726 272.9924 0087846  22.5451  40.7727 14.36869078987646"
      },
      "geometry": {
        "type": "Point",
        "coordinates": [
          100.57839216897779,
          38.22965288464177
        ]
      }
    },
    {
      "type": "Feature",
      "properties": {
        "norad_id": 29870,
        "name": "FENGYUN 1C DEB",
        "group": "fengyun-1c-debris",
        "lat": -81.39516137583242,
        "lon": 54.7686674713911,
        "alt_km": 766.6272345562911,
        "timestamp": "2025-12-09T07:41:33.480055+00:00",
        "meta_object_name": "FENGYUN 1C DEB",
        "meta_object_id": "1999-025FQ",
        "meta_epoch": "2025-12-08T22:22:53.906304",
        "meta_mean_motion": 14.28978483,
        "meta_eccentricity": 0.01196263,
        "meta_inclination": 98.4594,
        "meta_ra_of_asc_node": 313.963,
        "meta_arg_of_pericenter": 203.6576,
        "meta_mean_anomaly": 228.901,
        "meta_ephemeris_type": 0,
        "meta_classification_type": "U",
        "meta_norad_cat_id": 29870,
        "meta_element_set_no": 999,
        "meta_rev_at_epoch": 98539,
        "meta_bstar": 8.044914e-05,
        "meta_mean_motion_dot": 1.76e-06,
        "meta_mean_motion_ddot": 0,
        "tle_line1": "1 29870U 99025FQ  25342.93256836  .00000176  00000+0  80449-4 0  9991",
        "tle_line2": "2 29870  98.4594 313.9630 0119626 203.6576 228.9010 14.28978483985396"
      },
      "geometry": {
        "type": "Point",
        "coordinates": [
          54.7686674713911,
          -81.39516137583242
        ]
      }
    },
    {
      "type": "Feature",
      "properties": {
        "norad_id": 29871,
        "name": "FENGYUN 1C DEB",
        "group": "fengyun-1c-debris",
        "lat": 48.284535064785366,
        "lon": -73.93748641042693,
        "alt_km": 729.8931255601537,
        "timestamp": "2025-12-09T07:41:33.480065+00:00",
        "meta_object_name": "FENGYUN 1C DEB",
        "meta_object_id": "1999-025FR",
        "meta_epoch": "2025-12-08T20:03:42.621408",
        "meta_mean_motion": 14.42604403,
        "meta_eccentricity": 0.00584982,
        "meta_inclination": 98.9728,
        "meta_ra_of_asc_node": 295.7619,
        "meta_arg_of_pericenter": 118.896,
        "meta_mean_anomaly": 295.5231,
        "meta_ephemeris_type": 0,
        "meta_classification_type": "U",
        "meta_norad_cat_id": 29871,
        "meta_element_set_no": 999,
        "meta_rev_at_epoch": 98645,
        "meta_bstar": 0.0015824617,
        "meta_mean_motion_dot": 5.32e-05,
        "meta_mean_motion_ddot": 0,
        "tle_line1": "1 29871U 99025FR  25342.83590997  .00005320  00000+0  15825-2 0  9990",
        "tle_line2": "2 29871  98.9728 295.7619 0058498 118.8960 295.5231 14.42604403986455"
      },
      "geometry": {
        "type": "Point",
        "coordinates": [
          -73.93748641042693,
          48.284535064785366
        ]
      }
    },
    {
      "type": "Feature",
      "properties": {
        "norad_id": 29872,
        "name": "FENGYUN 1C DEB",
        "group": "fengyun-1c-debris",
        "lat": -81.60941452827629,
        "lon": 94.97534703728164,
        "alt_km": 669.6351419116072,
        "timestamp": "2025-12-09T07:41:33.480076+00:00",
        "meta_object_name": "FENGYUN 1C DEB",
        "meta_object_id": "1999-025FS",
        "meta_epoch": "2025-12-08T23:45:09.246240",
        "meta_mean_motion": 14.38922932,
        "meta_eccentricity": 0.02355674,
        "meta_inclination": 98.3458,
        "meta_ra_of_asc_node": 359.0556,
        "meta_arg_of_pericenter": 324.9004,
        "meta_mean_anomaly": 33.6853,
        "meta_ephemeris_type": 0,
        "meta_classification_type": "U",
        "meta_norad_cat_id": 29872,
        "meta_element_set_no": 999,
        "meta_rev_at_epoch": 98538,
        "meta_bstar": 0.00080962434,
        "meta_mean_motion_dot": 3.399e-05,
        "meta_mean_motion_ddot": 0,
        "tle_line1": "1 29872U 99025FS  25342.98969035  .00003399  00000+0  80962-3 0  9999",
        "tle_line2": "2 29872  98.3458 359.0556 0235567 324.9004  33.6853 14.38922932985384"
      },
      "geometry": {
        "type": "Point",
        "coordinates": [
          94.97534703728164,
          -81.60941452827629
        ]
      }
    },
    {
      "type": "Feature",
      "properties": {
        "norad_id": 29873,
        "name": "FENGYUN 1C DEB",
        "group": "fengyun-1c-debris",
        "lat": 49.03462905280008,
        "lon": 34.34691345749684,
        "alt_km": 881.5427760643506,
        "timestamp": "2025-12-09T07:41:33.480086+00:00",
        "meta_object_name": "FENGYUN 1C DEB",
        "meta_object_id": "1999-025FT",
        "meta_epoch": "2025-12-08T20:50:41.314272",
        "meta_mean_motion": 13.98145001,
        "meta_eccentricity": 0.00924971,
        "meta_inclination": 99.4424,
        "meta_ra_of_asc_node": 202.8318,
        "meta_arg_of_pericenter": 209.5769,
        "meta_mean_anomaly": 167.6428,
        "meta_ephemeris_type": 0,
        "meta_classification_type": "U",
        "meta_norad_cat_id": 29873,
        "meta_element_set_no": 999,
        "meta_rev_at_epoch": 96261,
        "meta_bstar": 0.00028034787,
        "meta_mean_motion_dot": 3.66e-06,
        "meta_mean_motion_ddot": 0,
        "tle_line1": "1 29873U 99025FT  25342.86853373  .00000366  00000+0  28035-3 0  9998",
        "tle_line2": "2 29873  99.4424 202.8318 0092497 209.5769 167.6428 13.98145001962616"
      },
      "geometry": {
        "type": "Point",
        "coordinates": [
          34.34691345749684,
          49.03462905280008
        ]
      }
    },
    {
      "type": "Feature",
      "properties": {
        "norad_id": 29874,
        "name": "FENGYUN 1C DEB",
        "group": "fengyun-1c-debris",
        "lat": -26.814789081358462,
        "lon": -115.38655241213642,
        "alt_km": 734.5403661997807,
        "timestamp": "2025-12-09T07:41:33.480096+00:00",
        "meta_object_name": "FENGYUN 1C DEB",
        "meta_object_id": "1999-025FU",
        "meta_epoch": "2025-12-08T04:00:48.987360",
        "meta_mean_motion": 14.28698987,
        "meta_eccentricity": 0.01053838,
        "meta_inclination": 98.3795,
        "meta_ra_of_asc_node": 239.2327,
        "meta_arg_of_pericenter": 4.0106,
        "meta_mean_anomaly": 161.1326,
        "meta_ephemeris_type": 0,
        "meta_classification_type": "U",
        "meta_norad_cat_id": 29874,
        "meta_element_set_no": 999,
        "meta_rev_at_epoch": 96782,
        "meta_bstar": 0.003799192,
        "meta_mean_motion_dot": 0.00010113,
        "meta_mean_motion_ddot": 0,
        "tle_line1": "1 29874U 99025FU  25342.16723365  .00010113  00000+0  37992-2 0  9991",
        "tle_line2": "2 29874  98.3795 239.2327 0105383   4.0106 161.1326 14.28698987967826"
      },
      "geometry": {
        "type": "Point",
        "coordinates": [
          -115.38655241213642,
          -26.814789081358462
        ]
      }
    },
    {
      "type": "Feature",
      "properties": {
        "norad_id": 29875,
        "name": "FENGYUN 1C DEB",
        "group": "fengyun-1c-debris",
        "lat": -46.48173393402464,
        "lon": -154.06911468055765,
        "alt_km": 869.2990375469226,
        "timestamp": "2025-12-09T07:41:33.480107+00:00",
        "meta_object_name": "FENGYUN 1C DEB",
        "meta_object_id": "1999-025FV",
        "meta_epoch": "2025-12-08T17:42:40.197600",
        "meta_mean_motion": 14.24877711,
        "meta_eccentricity": 0.00832572,
        "meta_inclination": 98.4057,
        "meta_ra_of_asc_node": 34.3313,
        "meta_arg_of_pericenter": 74.868,
        "meta_mean_anomaly": 45.1899,
        "meta_ephemeris_type": 0,
        "meta_classification_type": "U",
        "meta_norad_cat_id": 29875,
        "meta_element_set_no": 999,
        "meta_rev_at_epoch": 98265,
        "meta_bstar": 5.9083797e-05,
        "meta_mean_motion_dot": 1.02e-06,
        "meta_mean_motion_ddot": 0,
        "tle_line1": "1 29875U 99025FV  25342.73796525  .00000102  00000+0  59084-4 0  9998",
        "tle_line2": "2 29875  98.4057  34.3313 0083257  74.8680  45.1899 14.24877711982659"
      },
      "geometry": {
        "type": "Point",
        "coordinates": [
          -154.06911468055765,
          -46.48173393402464
        ]
      }
    }
  ]
}